[{"OBJECT_NAME":"STARLINK-4771","OBJECT_ID":"2022-114R","EPOCH":"2026-03-09T21:24:12.536064","MEAN_MOTION":15.08838881,"ECCENTRICITY":0.00012757,"INCLINATION":53.217,"RA_OF_ASC_NODE":303.0914,"ARG_OF_PERICENTER":98.808,"MEAN_ANOMALY":261.3056,"EPHEMERIS_TYPE":0,"CLASSIFICATION_TYPE":"U","NORAD_CAT_ID":53833,"ELEMENT_SET_NO":999,"REV_AT_EPOCH":19286,"BSTAR":-3.6486548e-5,"MEAN_MOTION_DOT":-8.68e-6,"MEAN_MOTION_DDOT":0},{"OBJECT_NAME":"CSC-1","OBJECT_ID":"2023-155G","EPOCH":"2026-03-09T17:46:02.342496","MEAN_MOTION":15.1003596,"ECCENTRICITY":0.00075041,"INCLINATION":97.5446,"RA_OF_ASC_NODE":139.7305,"ARG_OF_PERICENTER":212.9992,"MEAN_ANOMALY":147.077,"EPHEMERIS_TYPE":0,"CLASSIFICATION_TYPE":"U","NORAD_CAT_ID":58022,"ELEMENT_SET_NO":999,"REV_AT_EPOCH":13272,"BSTAR":0.00054556609,"MEAN_MOTION_DOT":8.819e-5,"MEAN_MOTION_DDOT":0}]
